[{"OBJECT_NAME":"NOAA 19","OBJECT_ID":"2009-005A","EPOCH":"2026-04-01T04:12:04.447008","MEAN_MOTION":14.13461061,"ECCENTRICITY":0.0012827,"INCLINATION":98.9566,"RA_OF_ASC_NODE":161.9795,"ARG_OF_PERICENTER":246.0898,"MEAN_ANOMALY":113.893,"EPHEMERIS_TYPE":0,"CLASSIFICATION_TYPE":"U","NORAD_CAT_ID":33591,"ELEMENT_SET_NO":999,"REV_AT_EPOCH":88360,"BSTAR":5.3629e-5,"MEAN_MOTION_DOT":5.6e-7,"MEAN_MOTION_DDOT":0},{"OBJECT_NAME":"SUOMI NPP","OBJECT_ID":"2011-061A","EPOCH":"2026-04-01T03:47:16.193184","MEAN_MOTION":14.19499506,"ECCENTRICITY":0.0001852,"INCLINATION":98.7898,"RA_OF_ASC_NODE":32.5849,"ARG_OF_PERICENTER":151.0578,"MEAN_ANOMALY":209.0701,"EPHEMERIS_TYPE":0,"CLASSIFICATION_TYPE":"U","NORAD_CAT_ID":37849,"ELEMENT_SET_NO":999,"REV_AT_EPOCH":74751,"BSTAR":6.9027e-5,"MEAN_MOTION_DOT":1.01e-6,"MEAN_MOTION_DDOT":0},{"OBJECT_NAME":"NOAA 20 (JPSS-1)","OBJECT_ID":"2017-073A","EPOCH":"2026-04-01T04:07:53.980320","MEAN_MOTION":14.19541831,"ECCENTRICITY":0.0001973,"INCLINATION":98.7719,"RA_OF_ASC_NODE":31.3394,"ARG_OF_PERICENTER":107.4046,"MEAN_ANOMALY":252.7346,"EPHEMERIS_TYPE":0,"CLASSIFICATION_TYPE":"U","NORAD_CAT_ID":43013,"ELEMENT_SET_NO":999,"REV_AT_EPOCH":43354,"BSTAR":5.4203e-5,"MEAN_MOTION_DOT":7.0e-7,"MEAN_MOTION_DDOT":0},{"OBJECT_NAME":"NOAA 21 (JPSS-2)","OBJECT_ID":"2022-150A","EPOCH":"2026-04-01T03:16:01.038432","MEAN_MOTION":14.19558011,"ECCENTRICITY":0.0002699,"INCLINATION":98.7581,"RA_OF_ASC_NODE":31.1482,"ARG_OF_PERICENTER":67.5276,"MEAN_ANOMALY":292.6185,"EPHEMERIS_TYPE":0,"CLASSIFICATION_TYPE":"U","NORAD_CAT_ID":54234,"ELEMENT_SET_NO":999,"REV_AT_EPOCH":17561,"BSTAR":6.2623e-5,"MEAN_MOTION_DOT":8.8e-7,"MEAN_MOTION_DDOT":0}]
