{"fetched_at":"2026-04-01T16:59:04Z","count":11445,"tles":[{"name":"NOAA 19","line1":"1 33591U 09005A   26091.17505147  .00000056  00000+0  53629-4 0  9992","line2":"2 33591  98.9566 161.9795 0012827 246.0898 113.8930 14.13461061883608","category":"Weather"},{"name":"NOAA 20 (JPSS-1)","line1":"1 43013U 17073A   26091.17215255  .00000070  00000+0  54203-4 0  9999","line2":"2 43013  98.7719  31.3394 0001973 107.4046 252.7346 14.19541831433544","category":"Weather"},{"name":"NOAA 21 (JPSS-2)","line1":"1 54234U 22150A   26091.13612313  .00000088  00000+0  62623-4 0  9994","line2":"2 54234  98.7581  31.1482 0002699  67.5276 292.6185 14.19558011175614","category":"Weather"},{"name":"SUOMI NPP","line1":"1 37849U 11061A   26091.15782631  .00000101  00000+0  69027-4 0  9990","line2":"2 37849  98.7898  32.5849 0001852 151.0578 209.0701 14.19499506747517","category":"Weather"}]}